[{"OBJECT_NAME":"OBJECT F","OBJECT_ID":"2025-055F","EPOCH":"2026-03-09T23:18:16.432128","MEAN_MOTION":15.14826081,"ECCENTRICITY":0.00132444,"INCLINATION":97.6376,"RA_OF_ASC_NODE":208.0739,"ARG_OF_PERICENTER":110.0651,"MEAN_ANOMALY":250.2008,"EPHEMERIS_TYPE":0,"CLASSIFICATION_TYPE":"U","NORAD_CAT_ID":63296,"ELEMENT_SET_NO":999,"REV_AT_EPOCH":5397,"BSTAR":0.00069816497,"MEAN_MOTION_DOT":0.00012945,"MEAN_MOTION_DDOT":0},{"OBJECT_NAME":"NOAA 16 DEB","OBJECT_ID":"2000-055FH","EPOCH":"2026-03-09T12:30:03.934368","MEAN_MOTION":15.16827851,"ECCENTRICITY":0.00080503,"INCLINATION":98.9144,"RA_OF_ASC_NODE":269.3218,"ARG_OF_PERICENTER":278.4203,"MEAN_ANOMALY":81.6113,"EPHEMERIS_TYPE":0,"CLASSIFICATION_TYPE":"U","NORAD_CAT_ID":41257,"ELEMENT_SET_NO":999,"REV_AT_EPOCH":52995,"BSTAR":0.010284054,"MEAN_MOTION_DOT":0.00208024,"MEAN_MOTION_DDOT":0}]
